COMSATBW-1              
1 35943U 09054B   22196.85977593  .00000013  00000+0  00000+0 0  9997
2 35943   0.0322  84.2776 0002883  35.5741 186.3724  1.00269063 46944
WORLDVIEW-2 (WV-2)      
1 35946U 09055A   22197.50595938  .00000100  00000+0  47702-4 0  9995
2 35946  98.4865 272.2864 0000199 121.8928 238.2272 14.37677600670088
DMSP 5D-3 F18 (USA 210) 
1 35951U 09057A   22197.49726134  .00000214  00000+0  13643-3 0  9997
2 35951  98.7232 176.1695 0011378  10.7182 349.4231 14.13525909657216
NSS-12                  
1 36032U 09058A   22197.14558965  .00000060  00000+0  00000+0 0  9994
2 36032   0.0184  61.6701 0002993  52.8694 288.8186  1.00270852 46553
THOR 6                  
1 36033U 09058B   22196.84704468 -.00000021  00000+0  00000+0 0  9990
2 36033   0.0334 223.7662 0002107 261.0995 112.8812  1.00271862 46647
SMOS                    
1 36036U 09059A   22197.42833673  .00000182  00000+0  71945-4 0  9998
2 36036  98.4437  24.5283 0001357  88.8543 271.2801 14.39759934667577
PROBA-2                 
1 36037U 09059B   22196.79649932  .00000117  00000+0  38819-4 0  9992
2 36037  98.2237  22.8590 0013981  26.9784 333.2137 14.53273673673375
SJ-11-01                
1 36088U 09061A   22197.03367188  .00000371  00000+0  85692-4 0  9992
2 36088  97.9300 210.8950 0010715 208.8528 151.2088 14.60410466675316
COSMOS 2455             
1 36095U 09063A   22197.20463814 -.00000046  00000+0  21042-4 0  9993
2 36095  67.1477 134.7160 0004207 246.4930 113.5713 13.96794655645315
INTELSAT 14 (IS-14)     
1 36097U 09064A   22197.12527196 -.00000285  00000+0  00000+0 0  9992
2 36097   0.0137  77.0408 0002812  43.7919 173.2022  1.00271913 46337
EUTELSAT 36B            
1 36101U 09065A   22197.35952096  .00000144  00000+0  00000+0 0  9998
2 36101   0.0655  19.8193 0005102  97.5842 342.0627  1.00272285 46453
INTELSAT 15 (IS-15)     
1 36106U 09067A   22197.13938264 -.00000197  00000+0  00000+0 0  9991
2 36106   0.0096  14.3355 0002532 108.3773 306.5563  1.00271550 46240
WGS F3 (USA 211)        
1 36108U 09068A   22196.87132655 -.00000202  00000+0  00000+0 0  9991
2 36108   0.1431  95.2554 0000697 204.9442  32.8643  1.00270093 32245
YAOGAN 7                
1 36110U 09069A   22197.50311010  .00001761  00000+0  26752-3 0  9996
2 36110  98.1971  57.5890 0024397 317.3880  42.5388 14.75181035678429
COSMOS 2456 [GLONASS-M] 
1 36111U 09070A   22196.42279113  .00000004  00000+0  00000+0 0  9999
2 36111  64.3595 120.0936 0005197 309.2823 223.5108  2.13099398 97939
COSMOS 2457 [GLONASS-M] 
1 36112U 09070B   22196.26892632  .00000003  00000+0  00000+0 0  9998
2 36112  64.3426 119.9748 0004010 180.5016   1.7635  2.13101623 97934
WISE                    
1 36119U 09071A   22197.42614644  .00006802  00000+0  20949-3 0  9991
2 36119  97.2369 231.2747 0002513 152.7305 207.4070 15.33942200699966
YAOGAN 8                
1 36121U 09072A   22197.50443094  .00000333  00000+0  11605-2 0  9994
2 36121 100.2676 129.8851 0020564 303.2754  56.6383 13.04980232602003
XIWANG-1 (HOPE-1)       
1 36122U 09072B   22196.84851570 -.00000039  00000+0  10105-4 0  9993
2 36122 100.1840 167.1683 0006772 277.4669  82.5675 13.16370270604547
HELIOS 2B               
1 36124U 09073A   22197.47032300  .00026226  00000+0  53423-3 0  9992
2 36124  98.1658 145.7347 0185591  33.5773 327.7026 15.29782442672582
DIRECTV 12              
1 36131U 09075A   22197.46410799 -.00000115  00000+0  00000+0 0  9992
2 36131   0.0149 176.2046 0000367  14.2133 168.2332  1.00270229 46037
BEIDOU 3                
1 36287U 10001A   22196.44467546 -.00000292  00000+0  00000+0 0  9990
2 36287   1.9296  49.1500 0004749  31.0980 153.4559  1.00271131 45792
RADUGA-1M 2             
1 36358U 10002A   22197.39424336 -.00000196  00000+0  00000+0 0  9998
2 36358   0.0796 254.9661 0002283 248.4731  17.6680  1.00273890 45654
SDO                     
1 36395U 10005A   22197.27416668 -.00000095  00000+0  00000+0 0  9996
2 36395  31.7093 108.7582 0000578 150.7577  31.0017  1.00269031 45670
INTELSAT 16 (IS-16)     
1 36397U 10006A   22196.83208899 -.00000256  00000+0  00000+0 0  9994
2 36397   0.0116  10.8713 0002200 101.7398  44.3784  1.00271931 45295
COSMOS 2461 [GLONASS-M] 
1 36401U 10007B   22196.70490448 -.00000065  00000+0  00000+0 0  9998
2 36401  65.9704   2.5672 0020361  13.9010 177.8615  2.13103763 96292
COSMOS 2460 [GLONASS-M] 
1 36402U 10007C   22197.46785043 -.00000066  00000+0  00000+0 0  9992
2 36402  65.9537   2.4902 0002756  88.6927 277.0732  2.13106452 96310
GOES 15                 
1 36411U 10008A   22197.47923162  .00000043  00000+0  00000+0 0  9994
2 36411   0.3582 100.8961 0002542  29.8910 207.6368  1.00275415 45312
YAOGAN 9A               
1 36413U 10009A   22196.88411160 -.00000036  00000+0  55578-4 0  9999
2 36413  63.3827  97.4015 0413458  12.2272 348.8425 13.45226902607264
YAOGAN 9B               
1 36414U 10009B   22197.46964730 -.00000065  00000+0  25873-4 0  9998
2 36414  63.3823  95.4666 0413316  11.5874 349.4320 13.45238278607512
YAOGAN 9C               
1 36415U 10009C   22197.46885344 -.00000058  00000+0  32809-4 0  9991
2 36415  63.3825  96.0918 0414179  11.8713 349.1722 13.45239918607486
ECHOSTAR 14             
1 36499U 10010A   22197.46913737 -.00000012  00000+0  00000+0 0  9996
2 36499   0.0196  58.0241 0002091  72.5421 213.7069  1.00269973 45185
CRYOSAT 2               
1 36508U 10013A   22196.85497979  .00000098  00000+0  23572-4 0  9994
2 36508  92.0370 290.9832 0006298 131.9426 228.2319 14.51896264650250
SES-1                   
1 36516U 10016A   22197.53452414 -.00000126  00000+0  00000+0 0  9996
2 36516   0.0459 285.7755 0002759 181.6647 278.3157  1.00271344 44784
COSMOS 2463             
1 36519U 10017A   22197.18000750  .00000026  00000+0  11747-4 0  9996
2 36519  82.9590 221.7001 0037152 141.5024 286.8012 13.71477133611728
ASTRA 3B                
1 36581U 10021A   22196.85192789  .00000125  00000+0  00000+0 0  9992
2 36581   0.0473 334.9813 0003253 149.8671 139.0129  1.00269718 44512
COMSATBW-2              
1 36582U 10021B   22197.37062981  .00000076  00000+0  00000+0 0  9996
2 36582   0.0673 104.8038 0002723  27.1694 308.8221  1.00273204 44639
NAVSTAR 65 (USA 213)    
1 36585U 10022A   22196.74635660  .00000001  00000+0  00000+0 0  9998
2 36585  54.7838 266.3767 0102612  56.9400  92.1595  2.00566639 88865
BADR-5                  
1 36592U 10025A   22197.13939843  .00000133  00000+0  00000+0 0  9999
2 36592   0.0298 120.9272 0005555  11.0160 238.1856  1.00267747 44542
SJ-12                   
1 36596U 10027A   22196.91891104  .00002511  00000+0  21814-3 0  9999
2 36596  97.7195 184.3672 0009733 301.5999  58.4272 14.97885570659268
TANDEM-X                
1 36605U 10030A   22196.76428463  .00000032  00000+0  47270-5 0  9993
2 36605  97.4447 203.9595 0001680  72.5473 341.5574 15.19150142669169
COMS 1                  
1 36744U 10032A   22196.58582052 -.00000356  00000+0  00000+0 0  9998
2 36744   1.1431  92.4616 0001186  37.4649 142.4915  1.00268908 36721
ARABSAT-5A              
1 36745U 10032B   22196.82456323  .00000142  00000+0  00000+0 0  9999
2 36745   0.0558  43.3170 0005021  93.4574 124.1682  1.00272010 44288
ECHOSTAR 15             
1 36792U 10034A   22197.12195834 -.00000293  00000+0  00000+0 0  9992
2 36792   0.0455 283.0271 0002139 186.9734 166.1835  1.00269963 44036
CARTOSAT-2B             
1 36795U 10035A   22197.42006425  .00000558  00000+0  83094-4 0  9998
2 36795  97.9588 257.4825 0014524 145.9739 214.2414 14.78662756648340
AISSAT 1                
1 36797U 10035C   22197.11584959  .00001168  00000+0  13646-3 0  9992
2 36797  98.2390  22.0999 0012302  78.9309 281.3289 14.87153650650835
ALSAT 2A                
1 36798U 10035D   22197.50536917  .00000512  00000+0  92524-4 0  9992
2 36798  97.8621 237.6121 0001757  95.5752 264.5662 14.70359428643156
TISAT 1                 
1 36799U 10035E   22196.53488877  .00002779  00000+0  27299-3 0  9999
2 36799  98.1797  48.0833 0012026  11.2760 348.8726 14.93002688652159
BEIDOU 5                
1 36828U 10036A   22197.36612545 -.00000106  00000+0  00000+0 0  9996
2 36828  54.1992 175.9618 0030845 190.8533 165.4857  1.00290900 43863
NILESAT 201             
1 36830U 10037A   22197.33382591 -.00000070  00000+0  00000+0 0  9992
2 36830   0.0519 180.9240 0005186 315.2202 271.1465  1.00271599 43935
RASCOM-QAF 1R           
1 36831U 10037B   22196.84782948  .00000007  00000+0  00000+0 0  9997
2 36831   0.0331  91.8982 0005518  25.0232 124.8391  1.00272390 43920
YAOGAN 10               
1 36834U 10038A   22197.38304982  .00000414  00000+0  59886-4 0  9992
2 36834  97.9748 208.0691 0001652  80.5430 279.5972 14.81296903645065
AEHF-1 (USA 214)        
1 36868U 10039A   22196.99154904  .00000011  00000+0  00000+0 0  9995
2 36868   4.6023  86.3879 0007740  25.8608 182.5705  1.00267762 44070
TIANHUI 1               
1 36985U 10040A   22197.57248612  .00002884  00000+0  10994-3 0  9999
2 36985  97.6709  55.1599 0029032 196.4096 221.9343 15.27190230661597
COSMOS 2464 [GLONASS-M] 
1 37139U 10041C   22196.65994688  .00000048  00000+0  00000+0 0  9994
2 37139  63.9785 239.5257 0027924   7.1198  40.4419  2.13100880 92350
COSMOS 2467             
1 37152U 10043A   22197.19347338  .00000010  00000+0  44949-5 0  9990
2 37152  82.4548 240.7270 0002421  70.0926 359.8930 12.42913333537650
STRELA 3                
1 37153U 10043B   22196.84088238  .00000005  00000+0 -35055-4 0  9995
2 37153  82.4563 250.6053 0006397 321.7339  38.3290 12.40746732536806
COSMOS 2468             
1 37154U 10043C   22196.88541301  .00000033  00000+0  16613-3 0  9993
2 37154  82.4587 238.9738 0014294 186.2032 347.0249 12.43676425537822
QZS-1 (MICHIBIKI-1)     
1 37158U 10045A   22196.69910743 -.00000174  00000+0  00000+0 0  9994
2 37158  42.3645 132.9984 0762915 270.7934 281.1387  1.00250938 43373
